[{"OBJECT_NAME":"TIANLIAN 2-04","OBJECT_ID":"2025-062A","EPOCH":"2026-03-05T16:05:14.648352","MEAN_MOTION":1.00271848,"ECCENTRICITY":0.0034953,"INCLINATION":4.6403,"RA_OF_ASC_NODE":275.8523,"ARG_OF_PERICENTER":9.5507,"MEAN_ANOMALY":199.3408,"EPHEMERIS_TYPE":0,"CLASSIFICATION_TYPE":"U","NORAD_CAT_ID":63361,"ELEMENT_SET_NO":999,"REV_AT_EPOCH":356,"BSTAR":0,"MEAN_MOTION_DOT":-1.47e-6,"MEAN_MOTION_DDOT":0},{"OBJECT_NAME":"TJS-16","OBJECT_ID":"2025-064A","EPOCH":"2026-03-05T16:27:38.556288","MEAN_MOTION":1.00272508,"ECCENTRICITY":0.0005225,"INCLINATION":0.8311,"RA_OF_ASC_NODE":81.9479,"ARG_OF_PERICENTER":258.7618,"MEAN_ANOMALY":230.1873,"EPHEMERIS_TYPE":0,"CLASSIFICATION_TYPE":"U","NORAD_CAT_ID":63397,"ELEMENT_SET_NO":999,"REV_AT_EPOCH":335,"BSTAR":0,"MEAN_MOTION_DOT":-1.12e-6,"MEAN_MOTION_DDOT":0},{"OBJECT_NAME":"TJS-17","OBJECT_ID":"2025-073A","EPOCH":"2026-03-05T18:58:53.269248","MEAN_MOTION":1.0027205,"ECCENTRICITY":0.0004477,"INCLINATION":0.7968,"RA_OF_ASC_NODE":83.5414,"ARG_OF_PERICENTER":250.0744,"MEAN_ANOMALY":279.1049,"EPHEMERIS_TYPE":0,"CLASSIFICATION_TYPE":"U","NORAD_CAT_ID":63524,"ELEMENT_SET_NO":999,"REV_AT_EPOCH":325,"BSTAR":0,"MEAN_MOTION_DOT":-7.6e-7,"MEAN_MOTION_DDOT":0},{"OBJECT_NAME":"TIANLIAN 2-05","OBJECT_ID":"2025-084A","EPOCH":"2026-03-05T19:10:50.391840","MEAN_MOTION":1.00273715,"ECCENTRICITY":0.0003224,"INCLINATION":4.7129,"RA_OF_ASC_NODE":280.9586,"ARG_OF_PERICENTER":82.7383,"MEAN_ANOMALY":107.9111,"EPHEMERIS_TYPE":0,"CLASSIFICATION_TYPE":"U","NORAD_CAT_ID":63662,"ELEMENT_SET_NO":999,"REV_AT_EPOCH":334,"BSTAR":0,"MEAN_MOTION_DOT":1.13e-6,"MEAN_MOTION_DDOT":0},{"OBJECT_NAME":"TJS-19","OBJECT_ID":"2025-097A","EPOCH":"2026-03-05T18:46:40.968768","MEAN_MOTION":1.00276269,"ECCENTRICITY":0.0003584,"INCLINATION":3.463,"RA_OF_ASC_NODE":315.8283,"ARG_OF_PERICENTER":336.5073,"MEAN_ANOMALY":294.0126,"EPHEMERIS_TYPE":0,"CLASSIFICATION_TYPE":"U","NORAD_CAT_ID":63924,"ELEMENT_SET_NO":999,"REV_AT_EPOCH":310,"BSTAR":0,"MEAN_MOTION_DOT":-2.84e-6,"MEAN_MOTION_DDOT":0},{"OBJECT_NAME":"CHINASAT 3B","OBJECT_ID":"2025-106A","EPOCH":"2026-03-05T14:47:37.091328","MEAN_MOTION":1.00268315,"ECCENTRICITY":0.0001768,"INCLINATION":0.0217,"RA_OF_ASC_NODE":137.1531,"ARG_OF_PERICENTER":193.3664,"MEAN_ANOMALY":222.0392,"EPHEMERIS_TYPE":0,"CLASSIFICATION_TYPE":"U","NORAD_CAT_ID":64062,"ELEMENT_SET_NO":999,"REV_AT_EPOCH":302,"BSTAR":0,"MEAN_MOTION_DOT":0,"MEAN_MOTION_DDOT":0},{"OBJECT_NAME":"SXM-10","OBJECT_ID":"2025-122A","EPOCH":"2026-03-05T03:49:38.659872","MEAN_MOTION":1.00270923,"ECCENTRICITY":0.00028481,"INCLINATION":0.0247,"RA_OF_ASC_NODE":67.2363,"ARG_OF_PERICENTER":299.6621,"MEAN_ANOMALY":97.2175,"EPHEMERIS_TYPE":0,"CLASSIFICATION_TYPE":"U","NORAD_CAT_ID":64290,"ELEMENT_SET_NO":999,"REV_AT_EPOCH":264,"BSTAR":0,"MEAN_MOTION_DOT":-2.5e-7,"MEAN_MOTION_DDOT":0},{"OBJECT_NAME":"CHINASAT 9C","OBJECT_ID":"2025-132A","EPOCH":"2026-03-05T16:08:51.800928","MEAN_MOTION":1.00271896,"ECCENTRICITY":0.0002597,"INCLINATION":0.0244,"RA_OF_ASC_NODE":111.7139,"ARG_OF_PERICENTER":222.2993,"MEAN_ANOMALY":163.8048,"EPHEMERIS_TYPE":0,"CLASSIFICATION_TYPE":"U","NORAD_CAT_ID":64470,"ELEMENT_SET_NO":999,"REV_AT_EPOCH":311,"BSTAR":0,"MEAN_MOTION_DOT":-2.54e-6,"MEAN_MOTION_DDOT":0},{"OBJECT_NAME":"MTG-S1","OBJECT_ID":"2025-143A","EPOCH":"2026-03-05T15:41:31.922016","MEAN_MOTION":1.00270049,"ECCENTRICITY":0.0002533,"INCLINATION":0.6541,"RA_OF_ASC_NODE":326.5489,"ARG_OF_PERICENTER":348.0242,"MEAN_ANOMALY":80.7234,"EPHEMERIS_TYPE":0,"CLASSIFICATION_TYPE":"U","NORAD_CAT_ID":64723,"ELEMENT_SET_NO":999,"REV_AT_EPOCH":238,"BSTAR":0,"MEAN_MOTION_DOT":-3.9e-7,"MEAN_MOTION_DDOT":0},{"OBJECT_NAME":"DROR 1","OBJECT_ID":"2025-148A","EPOCH":"2026-03-05T15:41:24.432864","MEAN_MOTION":1.00272385,"ECCENTRICITY":0.0003533,"INCLINATION":0.0314,"RA_OF_ASC_NODE":86.7628,"ARG_OF_PERICENTER":260.9845,"MEAN_ANOMALY":46.9715,"EPHEMERIS_TYPE":0,"CLASSIFICATION_TYPE":"U","NORAD_CAT_ID":64784,"ELEMENT_SET_NO":999,"REV_AT_EPOCH":225,"BSTAR":0,"MEAN_MOTION_DOT":-4.1e-7,"MEAN_MOTION_DDOT":0},{"OBJECT_NAME":"SHIYAN-29","OBJECT_ID":"2025-196A","EPOCH":"2026-03-05T18:31:25.807008","MEAN_MOTION":1.00288637,"ECCENTRICITY":0.0009964,"INCLINATION":28.7126,"RA_OF_ASC_NODE":19.8365,"ARG_OF_PERICENTER":182.9443,"MEAN_ANOMALY":333.038,"EPHEMERIS_TYPE":0,"CLASSIFICATION_TYPE":"U","NORAD_CAT_ID":65486,"ELEMENT_SET_NO":999,"REV_AT_EPOCH":184,"BSTAR":0,"MEAN_MOTION_DOT":-2.72e-6,"MEAN_MOTION_DDOT":0},{"OBJECT_NAME":"NUSANTARA LIMA (NUSANTARA 5)","OBJECT_ID":"2025-205A","EPOCH":"2026-03-05T19:32:19.968000","MEAN_MOTION":1.00271312,"ECCENTRICITY":9.43e-5,"INCLINATION":0.0846,"RA_OF_ASC_NODE":55.734,"ARG_OF_PERICENTER":0.6526,"MEAN_ANOMALY":153.0612,"EPHEMERIS_TYPE":0,"CLASSIFICATION_TYPE":"U","NORAD_CAT_ID":65588,"ELEMENT_SET_NO":999,"REV_AT_EPOCH":168,"BSTAR":0,"MEAN_MOTION_DOT":-3.64e-6,"MEAN_MOTION_DDOT":0},{"OBJECT_NAME":"TJS-20","OBJECT_ID":"2025-238A","EPOCH":"2026-03-05T16:00:22.613760","MEAN_MOTION":1.00270057,"ECCENTRICITY":0.0007624,"INCLINATION":5.6997,"RA_OF_ASC_NODE":299.9388,"ARG_OF_PERICENTER":90.5423,"MEAN_ANOMALY":75.3976,"EPHEMERIS_TYPE":0,"CLASSIFICATION_TYPE":"U","NORAD_CAT_ID":66142,"ELEMENT_SET_NO":999,"REV_AT_EPOCH":129,"BSTAR":0,"MEAN_MOTION_DOT":1.5e-7,"MEAN_MOTION_DDOT":0},{"OBJECT_NAME":"CMS-03 (GSAT-7R)","OBJECT_ID":"2025-249B","EPOCH":"2026-03-05T17:29:33.091008","MEAN_MOTION":0.99987742,"ECCENTRICITY":0.0001516,"INCLINATION":0.0594,"RA_OF_ASC_NODE":271.7691,"ARG_OF_PERICENTER":214.807,"MEAN_ANOMALY":19.0746,"EPHEMERIS_TYPE":0,"CLASSIFICATION_TYPE":"U","NORAD_CAT_ID":66311,"ELEMENT_SET_NO":999,"REV_AT_EPOCH":131,"BSTAR":0,"MEAN_MOTION_DOT":-7.7e-7,"MEAN_MOTION_DDOT":0},{"OBJECT_NAME":"SHIJIAN-28 (SJ-28)","OBJECT_ID":"2025-277A","EPOCH":"2026-03-05T18:48:17.900928","MEAN_MOTION":1.00274416,"ECCENTRICITY":1.61e-5,"INCLINATION":4.8046,"RA_OF_ASC_NODE":273.6916,"ARG_OF_PERICENTER":152.7818,"MEAN_ANOMALY":135.8648,"EPHEMERIS_TYPE":0,"CLASSIFICATION_TYPE":"U","NORAD_CAT_ID":66549,"ELEMENT_SET_NO":999,"REV_AT_EPOCH":111,"BSTAR":0,"MEAN_MOTION_DOT":-3.71e-6,"MEAN_MOTION_DDOT":0},{"OBJECT_NAME":"TJS-22","OBJECT_ID":"2025-290A","EPOCH":"2026-03-05T03:41:53.020896","MEAN_MOTION":1.00272332,"ECCENTRICITY":0.0002927,"INCLINATION":1.785,"RA_OF_ASC_NODE":285.4204,"ARG_OF_PERICENTER":359.3771,"MEAN_ANOMALY":0.01,"EPHEMERIS_TYPE":0,"CLASSIFICATION_TYPE":"U","NORAD_CAT_ID":66990,"ELEMENT_SET_NO":999,"REV_AT_EPOCH":98,"BSTAR":0,"MEAN_MOTION_DOT":-1.7e-7,"MEAN_MOTION_DDOT":0},{"OBJECT_NAME":"TJS-23","OBJECT_ID":"2025-306A","EPOCH":"2026-03-04T21:19:08.205024","MEAN_MOTION":1.00274662,"ECCENTRICITY":0.0004531,"INCLINATION":5.8256,"RA_OF_ASC_NODE":298.0041,"ARG_OF_PERICENTER":107.8709,"MEAN_ANOMALY":252.0555,"EPHEMERIS_TYPE":0,"CLASSIFICATION_TYPE":"U","NORAD_CAT_ID":67226,"ELEMENT_SET_NO":999,"REV_AT_EPOCH":84,"BSTAR":0,"MEAN_MOTION_DOT":3.0e-8,"MEAN_MOTION_DDOT":0}]
