TIANLIAN 2-04           
1 63361U 25062A   26064.67030843 -.00000147  00000+0  00000+0 0  9994
2 63361   4.6403 275.8523 0034953   9.5507 199.3408  1.00271848  3569
TJS-16                  
1 63397U 25064A   26064.68586292 -.00000112  00000+0  00000+0 0  9992
2 63397   0.8311  81.9479 0005225 258.7618 230.1873  1.00272508  3352
TJS-17                  
1 63524U 25073A   26064.79089432 -.00000076  00000+0  00000+0 0  9999
2 63524   0.7968  83.5414 0004477 250.0744 279.1049  1.00272050  3250
TIANLIAN 2-05           
1 63662U 25084A   26064.79919435  .00000113  00000+0  00000+0 0  9990
2 63662   4.7129 280.9586 0003224  82.7383 107.9111  1.00273715  3344
TJS-19                  
1 63924U 25097A   26064.78241862 -.00000284  00000+0  00000+0 0  9996
2 63924   3.4630 315.8283 0003584 336.5073 294.0126  1.00276269  3100
CHINASAT 3B             
1 64062U 25106A   26064.61640152  .00000000  00000+0  00000+0 0  9993
2 64062   0.0217 137.1531 0001768 193.3664 222.0392  1.00268315  3026
SXM-10                  
1 64290U 25122A   26064.15947523 -.00000025  00000+0  00000+0 0  9993
2 64290   0.0247  67.2363 0002848 299.6621  97.2175  1.00270923  2647
CHINASAT 9C             
1 64470U 25132A   26064.67282177 -.00000254  00000+0  00000+0 0  9992
2 64470   0.0244 111.7139 0002597 222.2993 163.8048  1.00271896  3117
MTG-S1                  
1 64723U 25143A   26064.65384169 -.00000039  00000+0  00000+0 0  9998
2 64723   0.6541 326.5489 0002533 348.0242  80.7234  1.00270049  2383
DROR 1                  
1 64784U 25148A   26064.65375501 -.00000041  00000+0  00000+0 0  9993
2 64784   0.0314  86.7628 0003533 260.9845  46.9715  1.00272385  2253
SHIYAN-29               
1 65486U 25196A   26064.77182647 -.00000272  00000+0  00000+0 0  9992
2 65486  28.7126  19.8365 0009964 182.9443 333.0380  1.00288637  1846
NUSANTARA LIMA (NUSANT*)
1 65588U 25205A   26064.81412000 -.00000364  00000+0  00000+0 0  9992
2 65588   0.0846  55.7340 0000943   0.6526 153.0612  1.00271312  1681
TJS-20                  
1 66142U 25238A   26064.66692840  .00000015  00000+0  00000+0 0  9992
2 66142   5.6997 299.9388 0007624  90.5423  75.3976  1.00270057  1298
CMS-03 (GSAT-7R)        
1 66311U 25249B   26064.72885522 -.00000077  00000+0  00000+0 0  9999
2 66311   0.0594 271.7691 0001516 214.8070  19.0746  0.99987742  1312
SHIJIAN-28 (SJ-28)      
1 66549U 25277A   26064.78354052 -.00000371  00000+0  00000+0 0  9995
2 66549   4.8046 273.6916 0000161 152.7818 135.8648  1.00274416  1111
TJS-22                  
1 66990U 25290A   26064.15408589 -.00000017  00000+0  00000+0 0  9993
2 66990   1.7850 285.4204 0002927 359.3771   0.0100  1.00272332   981
TJS-23                  
1 67226U 25306A   26063.88828941  .00000003  00000+0  00000+0 0  9995
2 67226   5.8256 298.0041 0004531 107.8709 252.0555  1.00274662   844
